{"fetched_at":"2026-07-19T07:04:54.104Z","source":"https://celestrak.org/NORAD/elements/gp.php?GROUP=spire&FORMAT=JSON","constellation":"spire","records":[{"OBJECT_NAME":"LEMUR-2-MYRA","OBJECT_ID":"2025-276EC","EPOCH":"2026-07-18T17:41:38.457888","CLASSIFICATION_TYPE":"U","MEAN_MOTION":15.00611838,"ECCENTRICITY":0.0018628,"INCLINATION":97.522,"RA_OF_ASC_NODE":269.5906,"ARG_OF_PERICENTER":43.5226,"MEAN_ANOMALY":316.7464,"EPHEMERIS_TYPE":0,"NORAD_CAT_ID":66787,"ELEMENT_SET_NO":999,"REV_AT_EPOCH":3494,"BSTAR":0.00024269,"MEAN_MOTION_DOT":0.00003019,"MEAN_MOTION_DDOT":0},{"OBJECT_NAME":"LEMUR-2 FIKRETDENGIZ","OBJECT_ID":"2026-004A","EPOCH":"2026-07-18T19:08:44.803392","CLASSIFICATION_TYPE":"U","MEAN_MOTION":14.88530422,"ECCENTRICITY":0.0009922,"INCLINATION":97.8032,"RA_OF_ASC_NODE":197.8762,"ARG_OF_PERICENTER":45.8625,"MEAN_ANOMALY":314.3406,"EPHEMERIS_TYPE":0,"NORAD_CAT_ID":67363,"ELEMENT_SET_NO":999,"REV_AT_EPOCH":2798,"BSTAR":0.00021614,"MEAN_MOTION_DOT":0.00001956,"MEAN_MOTION_DDOT":0},{"OBJECT_NAME":"TWILIGHT-1 OBJECT B","OBJECT_ID":"2026-004B","EPOCH":"2026-07-17T23:05:45.496896","CLASSIFICATION_TYPE":"U","MEAN_MOTION":14.87798598,"ECCENTRICITY":0.00095408,"INCLINATION":97.8076,"RA_OF_ASC_NODE":197.0524,"ARG_OF_PERICENTER":37.8134,"MEAN_ANOMALY":322.3751,"EPHEMERIS_TYPE":0,"NORAD_CAT_ID":67364,"ELEMENT_SET_NO":999,"REV_AT_EPOCH":2786,"BSTAR":0.000099977192,"MEAN_MOTION_DOT":0.00000859,"MEAN_MOTION_DDOT":0},{"OBJECT_NAME":"LEMUR-2-MARIO-SOUSA","OBJECT_ID":"2026-004C","EPOCH":"2026-07-18T17:02:13.479072","CLASSIFICATION_TYPE":"U","MEAN_MOTION":14.88742836,"ECCENTRICITY":0.0009598,"INCLINATION":97.8003,"RA_OF_ASC_NODE":197.7845,"ARG_OF_PERICENTER":47.3532,"MEAN_ANOMALY":312.8492,"EPHEMERIS_TYPE":0,"NORAD_CAT_ID":67365,"ELEMENT_SET_NO":999,"REV_AT_EPOCH":2798,"BSTAR":0.00019133,"MEAN_MOTION_DOT":0.00001735,"MEAN_MOTION_DDOT":0},{"OBJECT_NAME":"LEMUR-2-SONNENBLUME","OBJECT_ID":"2026-004E","EPOCH":"2026-07-18T18:44:04.779168","CLASSIFICATION_TYPE":"U","MEAN_MOTION":14.88462938,"ECCENTRICITY":0.0009202,"INCLINATION":97.8002,"RA_OF_ASC_NODE":197.8252,"ARG_OF_PERICENTER":48.2789,"MEAN_ANOMALY":311.9213,"EPHEMERIS_TYPE":0,"NORAD_CAT_ID":67367,"ELEMENT_SET_NO":999,"REV_AT_EPOCH":2799,"BSTAR":0.00013567,"MEAN_MOTION_DOT":0.00001205,"MEAN_MOTION_DDOT":0},{"OBJECT_NAME":"LEMUR-2-WOBLER","OBJECT_ID":"2026-004F","EPOCH":"2026-07-18T05:33:29.983392","CLASSIFICATION_TYPE":"U","MEAN_MOTION":14.88710075,"ECCENTRICITY":0.00092888,"INCLINATION":97.8054,"RA_OF_ASC_NODE":197.4389,"ARG_OF_PERICENTER":41.2949,"MEAN_ANOMALY":318.8968,"EPHEMERIS_TYPE":0,"NORAD_CAT_ID":67368,"ELEMENT_SET_NO":999,"REV_AT_EPOCH":2791,"BSTAR":0.00018669337,"MEAN_MOTION_DOT":0.0000169,"MEAN_MOTION_DDOT":0},{"OBJECT_NAME":"LEMUR-2-GRAM-E-SUE","OBJECT_ID":"2026-004H","EPOCH":"2026-07-18T10:12:52.818912","CLASSIFICATION_TYPE":"U","MEAN_MOTION":14.885974,"ECCENTRICITY":0.00083944,"INCLINATION":97.7987,"RA_OF_ASC_NODE":197.4922,"ARG_OF_PERICENTER":52.3674,"MEAN_ANOMALY":307.8304,"EPHEMERIS_TYPE":0,"NORAD_CAT_ID":67370,"ELEMENT_SET_NO":999,"REV_AT_EPOCH":2794,"BSTAR":0.00013127877,"MEAN_MOTION_DOT":0.00001168,"MEAN_MOTION_DDOT":0},{"OBJECT_NAME":"LEMUR-2-KATIE","OBJECT_ID":"2026-004AA","EPOCH":"2026-07-18T18:45:49.942656","CLASSIFICATION_TYPE":"U","MEAN_MOTION":14.90267445,"ECCENTRICITY":0.0003157,"INCLINATION":97.8048,"RA_OF_ASC_NODE":198.4065,"ARG_OF_PERICENTER":25.2222,"MEAN_ANOMALY":334.9149,"EPHEMERIS_TYPE":0,"NORAD_CAT_ID":67387,"ELEMENT_SET_NO":999,"REV_AT_EPOCH":2801,"BSTAR":0.00019756,"MEAN_MOTION_DOT":0.00001862,"MEAN_MOTION_DDOT":0},{"OBJECT_NAME":"LEMUR-2-HCS-BAZUS","OBJECT_ID":"2026-004AB","EPOCH":"2026-07-18T18:43:25.875840","CLASSIFICATION_TYPE":"U","MEAN_MOTION":14.90275793,"ECCENTRICITY":0.0002673,"INCLINATION":97.8039,"RA_OF_ASC_NODE":198.3827,"ARG_OF_PERICENTER":26.7191,"MEAN_ANOMALY":333.4164,"EPHEMERIS_TYPE":0,"NORAD_CAT_ID":67388,"ELEMENT_SET_NO":999,"REV_AT_EPOCH":2801,"BSTAR":0.00017132,"MEAN_MOTION_DOT":0.00001608,"MEAN_MOTION_DDOT":0}]}
